GLOBALSTAR M075         
1 37192U 10054E   25139.12727043 -.00000068  00000+0  19847-3 0  9994
2 37192  51.9951 270.0174 0000665 114.1886  56.5505 12.62264923672706
GLOBALSTAR M073         
1 37193U 10054F   25139.40964229 -.00000094  00000+0  53093-4 0  9996
2 37193  52.0037 182.9564 0000158 192.2275 181.4506 12.62271656674256
GLOBALSTAR M083         
1 37739U 11033A   25138.94850814 -.00000111  00000+0 -42975-4 0  9990
2 37739  51.9839 133.1292 0000186 103.7145 273.5641 12.62263634643166
GLOBALSTAR M088         
1 37740U 11033B   25138.93543912 -.00000086  00000+0  10032-3 0  9997
2 37740  51.9751  38.6825 0000724  76.2016   2.9497 12.62266104638703
GLOBALSTAR M091         
1 37741U 11033C   25138.93446318 -.00000092  00000+0  67967-4 0  9997
2 37741  52.0019   2.1914 0000936 100.2935 273.6014 12.62267904639499
GLOBALSTAR M085         
1 37742U 11033D   25139.19337431 -.00000084  00000+0  10836-3 0  9995
2 37742  51.9876 312.4667 0000940 115.8306  55.5074 12.62268489640528
GLOBALSTAR M081         
1 37743U 11033E   25138.80913514 -.00000074  00000+0  16722-3 0  9994
2 37743  51.9967 316.4071 0000752 117.8363 345.7798 12.62263977640130
GLOBALSTAR M089         
1 37744U 11033F   25139.55605734 -.00000089  00000+0  81836-4 0  9995
2 37744  51.9932 268.3639 0000458 107.6815 333.0307 12.62269944641328
